IRIDIUM 166             
1 43570U 18061B   23240.79086639  .00000268  00000+0  88798-4 0  9993
2 43570  86.3972 124.4828 0002310  82.5153 277.6305 14.34216088266714
IRIDIUM 158             
1 43571U 18061C   23240.68938150  .00000279  00000+0  92478-4 0  9998
2 43571  86.3972 124.5343 0002083  76.1755 283.9673 14.34218788266663
IRIDIUM 165             
1 43572U 18061D   23240.78452181  .00000279  00000+0  92484-4 0  9992
2 43572  86.3975 124.5216 0002047  73.8771 286.2650 14.34217738266708
IRIDIUM 155             
1 43573U 18061E   23240.74646452  .00000260  00000+0  85757-4 0  9990
2 43573  86.3970 124.4566 0002391  87.1822 272.9647 14.34218163266664
IRIDIUM 154             
1 43574U 18061F   23240.79720609  .00000256  00000+0  84410-4 0  9993
2 43574  86.3974 124.5193 0001907  87.3350 272.8064 14.34217506266725
IRIDIUM 163             
1 43575U 18061G   23240.91771452  .00000280  00000+0  92847-4 0  9990
2 43575  86.3971 124.4161 0002060  84.9237 275.2193 14.34218508266717
IRIDIUM 156             
1 43576U 18061H   23240.82257636  .00000275  00000+0  91165-4 0  9990
2 43576  86.3972 124.4617 0002386  80.9525 279.1940 14.34218616266692
IRIDIUM 164             
1 43577U 18061J   23240.73377568  .00000269  00000+0  89104-4 0  9991
2 43577  86.3972 124.5234 0002100  78.0116 282.1315 14.34220131266726
